CCSDS_OMM_VERS = 2.0
CREATION_DATE  = 
ORIGINATOR     = 

OBJECT_NAME    = STARLINK-36257
OBJECT_ID      = 2026-035AA
CENTER_NAME    = EARTH
REF_FRAME      = TEME
TIME_SYSTEM    = UTC
MEAN_ELEMENT_THEORY = SGP/SGP4

EPOCH          = 2026-03-22T06:15:58.379904
MEAN_MOTION    = 15.75177865
ECCENTRICITY   = .00001922
INCLINATION    = 97.2861
RA_OF_ASC_NODE = 14.2939
ARG_OF_PERICENTER = 265.0076
MEAN_ANOMALY   = 95.1168

EPHEMERIS_TYPE = 0
CLASSIFICATION_TYPE = U
NORAD_CAT_ID   = 67903
ELEMENT_SET_NO = 999
REV_AT_EPOCH   = 582
BSTAR          = .27516116E-2
MEAN_MOTION_DOT = .431572E-2
MEAN_MOTION_DDOT = 0

CCSDS_OMM_VERS = 2.0
CREATION_DATE  = 
ORIGINATOR     = 

OBJECT_NAME    = STARLINK-36814
OBJECT_ID      = 2026-036A
CENTER_NAME    = EARTH
REF_FRAME      = TEME
TIME_SYSTEM    = UTC
MEAN_ELEMENT_THEORY = SGP/SGP4

EPOCH          = 2026-03-21T15:33:31.942368
MEAN_MOTION    = 15.50659778
ECCENTRICITY   = .00017297
INCLINATION    = 43.0002
RA_OF_ASC_NODE = 179.2551
ARG_OF_PERICENTER = 261.4102
MEAN_ANOMALY   = 98.6562

EPHEMERIS_TYPE = 0
CLASSIFICATION_TYPE = U
NORAD_CAT_ID   = 67904
ELEMENT_SET_NO = 999
REV_AT_EPOCH   = 553
BSTAR          = .14907072E-2
MEAN_MOTION_DOT = .88359E-3
MEAN_MOTION_DDOT = 0

CCSDS_OMM_VERS = 2.0
CREATION_DATE  = 
ORIGINATOR     = 

OBJECT_NAME    = STARLINK-36729
OBJECT_ID      = 2026-036B
CENTER_NAME    = EARTH
REF_FRAME      = TEME
TIME_SYSTEM    = UTC
MEAN_ELEMENT_THEORY = SGP/SGP4

EPOCH          = 2026-03-22T04:00:01.999584
MEAN_MOTION    = 15.47452600
ECCENTRICITY   = .00010105
INCLINATION    = 42.9999
RA_OF_ASC_NODE = 175.5863
ARG_OF_PERICENTER = 258.2026
MEAN_ANOMALY   = 16.9644

EPHEMERIS_TYPE = 0
CLASSIFICATION_TYPE = U
NORAD_CAT_ID   = 67905
ELEMENT_SET_NO = 999
REV_AT_EPOCH   = 565
BSTAR          = -.40722812E-1
MEAN_MOTION_DOT = -.1918841E-1
MEAN_MOTION_DDOT = 0

CCSDS_OMM_VERS = 2.0
CREATION_DATE  = 
ORIGINATOR     = 

OBJECT_NAME    = STARLINK-36763
OBJECT_ID      = 2026-036C
CENTER_NAME    = EARTH
REF_FRAME      = TEME
TIME_SYSTEM    = UTC
MEAN_ELEMENT_THEORY = SGP/SGP4

EPOCH          = 2026-03-21T00:00:00.999648
MEAN_MOTION    = 15.50983574
ECCENTRICITY   = .00014719
INCLINATION    = 43.0005
RA_OF_ASC_NODE = 182.3255
ARG_OF_PERICENTER = 274.0677
MEAN_ANOMALY   = 354.6883

EPHEMERIS_TYPE = 0
CLASSIFICATION_TYPE = U
NORAD_CAT_ID   = 67906
ELEMENT_SET_NO = 999
REV_AT_EPOCH   = 546
BSTAR          = -.38553266E-1
MEAN_MOTION_DOT = -.2044709E-1
MEAN_MOTION_DDOT = 0

CCSDS_OMM_VERS = 2.0
CREATION_DATE  = 
ORIGINATOR     = 

OBJECT_NAME    = STARLINK-36742
OBJECT_ID      = 2026-036D
CENTER_NAME    = EARTH
REF_FRAME      = TEME
TIME_SYSTEM    = UTC
MEAN_ELEMENT_THEORY = SGP/SGP4

EPOCH          = 2026-03-22T05:51:35.611488
MEAN_MOTION    = 15.49306871
ECCENTRICITY   = .00014527
INCLINATION    = 43.0000
RA_OF_ASC_NODE = 175.1045
ARG_OF_PERICENTER = 191.5852
MEAN_ANOMALY   = 168.4975

EPHEMERIS_TYPE = 0
CLASSIFICATION_TYPE = U
NORAD_CAT_ID   = 67907
ELEMENT_SET_NO = 999
REV_AT_EPOCH   = 563
BSTAR          = -.69739584E-2
MEAN_MOTION_DOT = -.373296E-2
MEAN_MOTION_DDOT = 0

CCSDS_OMM_VERS = 2.0
CREATION_DATE  = 
ORIGINATOR     = 

OBJECT_NAME    = STARLINK-36827
OBJECT_ID      = 2026-036E
CENTER_NAME    = EARTH
REF_FRAME      = TEME
TIME_SYSTEM    = UTC
MEAN_ELEMENT_THEORY = SGP/SGP4

EPOCH          = 2026-03-22T04:00:01.999584
MEAN_MOTION    = 15.43800888
ECCENTRICITY   = .00016818
INCLINATION    = 42.9996
RA_OF_ASC_NODE = 175.2898
ARG_OF_PERICENTER = 268.7899
MEAN_ANOMALY   = 126.7690

EPHEMERIS_TYPE = 0
CLASSIFICATION_TYPE = U
NORAD_CAT_ID   = 67908
ELEMENT_SET_NO = 999
REV_AT_EPOCH   = 565
BSTAR          = -.45947679E-1
MEAN_MOTION_DOT = -.1909129E-1
MEAN_MOTION_DDOT = 0

CCSDS_OMM_VERS = 2.0
CREATION_DATE  = 
ORIGINATOR     = 

OBJECT_NAME    = STARLINK-36822
OBJECT_ID      = 2026-036F
CENTER_NAME    = EARTH
REF_FRAME      = TEME
TIME_SYSTEM    = UTC
MEAN_ELEMENT_THEORY = SGP/SGP4

EPOCH          = 2026-03-21T15:50:21.543648
MEAN_MOTION    = 15.50685632
ECCENTRICITY   = .00001791
INCLINATION    = 42.9968
RA_OF_ASC_NODE = 178.4570
ARG_OF_PERICENTER = 89.2305
MEAN_ANOMALY   = 270.8576

EPHEMERIS_TYPE = 0
CLASSIFICATION_TYPE = U
NORAD_CAT_ID   = 67909
ELEMENT_SET_NO = 999
REV_AT_EPOCH   = 554
BSTAR          = .15159786E-2
MEAN_MOTION_DOT = .89964E-3
MEAN_MOTION_DDOT = 0

CCSDS_OMM_VERS = 2.0
CREATION_DATE  = 
ORIGINATOR     = 

OBJECT_NAME    = STARLINK-36847
OBJECT_ID      = 2026-036G
CENTER_NAME    = EARTH
REF_FRAME      = TEME
TIME_SYSTEM    = UTC
MEAN_ELEMENT_THEORY = SGP/SGP4

EPOCH          = 2026-03-21T15:55:14.730816
MEAN_MOTION    = 15.50600933
ECCENTRICITY   = .00026297
INCLINATION    = 43.0042
RA_OF_ASC_NODE = 178.4878
ARG_OF_PERICENTER = 294.5188
MEAN_ANOMALY   = 65.5398

EPHEMERIS_TYPE = 0
CLASSIFICATION_TYPE = U
NORAD_CAT_ID   = 67910
ELEMENT_SET_NO = 999
REV_AT_EPOCH   = 554
BSTAR          = .1879945E-2
MEAN_MOTION_DOT = .111624E-2
MEAN_MOTION_DDOT = 0

CCSDS_OMM_VERS = 2.0
CREATION_DATE  = 
ORIGINATOR     = 

OBJECT_NAME    = STARLINK-36736
OBJECT_ID      = 2026-036H
CENTER_NAME    = EARTH
REF_FRAME      = TEME
TIME_SYSTEM    = UTC
MEAN_ELEMENT_THEORY = SGP/SGP4

EPOCH          = 2026-03-22T04:00:01.999584
MEAN_MOTION    = 15.41267552
ECCENTRICITY   = .00014829
INCLINATION    = 42.9996
RA_OF_ASC_NODE = 175.0699
ARG_OF_PERICENTER = 280.5108
MEAN_ANOMALY   = 203.9468

EPHEMERIS_TYPE = 0
CLASSIFICATION_TYPE = U
NORAD_CAT_ID   = 67911
ELEMENT_SET_NO = 999
REV_AT_EPOCH   = 565
BSTAR          = -.48596233E-1
MEAN_MOTION_DOT = -.1858481E-1
MEAN_MOTION_DDOT = 0

CCSDS_OMM_VERS = 2.0
CREATION_DATE  = 
ORIGINATOR     = 

OBJECT_NAME    = STARLINK-36676
OBJECT_ID      = 2026-036J
CENTER_NAME    = EARTH
REF_FRAME      = TEME
TIME_SYSTEM    = UTC
MEAN_ELEMENT_THEORY = SGP/SGP4

EPOCH          = 2026-03-22T04:00:01.999584
MEAN_MOTION    = 15.45629380
ECCENTRICITY   = .00017539
INCLINATION    = 42.9996
RA_OF_ASC_NODE = 175.1339
ARG_OF_PERICENTER = 275.0838
MEAN_ANOMALY   = 183.1426

EPHEMERIS_TYPE = 0
CLASSIFICATION_TYPE = U
NORAD_CAT_ID   = 67912
ELEMENT_SET_NO = 999
REV_AT_EPOCH   = 565
BSTAR          = -.42337474E-1
MEAN_MOTION_DOT = -.1877071E-1
MEAN_MOTION_DDOT = 0

CCSDS_OMM_VERS = 2.0
CREATION_DATE  = 
ORIGINATOR     = 

OBJECT_NAME    = STARLINK-36690
OBJECT_ID      = 2026-036K
CENTER_NAME    = EARTH
REF_FRAME      = TEME
TIME_SYSTEM    = UTC
MEAN_ELEMENT_THEORY = SGP/SGP4

EPOCH          = 2026-03-22T04:00:01.999584
MEAN_MOTION    = 15.46611088
ECCENTRICITY   = .00013598
INCLINATION    = 42.9998
RA_OF_ASC_NODE = 175.1113
ARG_OF_PERICENTER = 281.5500
MEAN_ANOMALY   = 185.7993

EPHEMERIS_TYPE = 0
CLASSIFICATION_TYPE = U
NORAD_CAT_ID   = 67913
ELEMENT_SET_NO = 999
REV_AT_EPOCH   = 565
BSTAR          = -.41376783E-1
MEAN_MOTION_DOT = -.1895845E-1
MEAN_MOTION_DDOT = 0

CCSDS_OMM_VERS = 2.0
CREATION_DATE  = 
ORIGINATOR     = 

OBJECT_NAME    = STARLINK-36724
OBJECT_ID      = 2026-036L
CENTER_NAME    = EARTH
REF_FRAME      = TEME
TIME_SYSTEM    = UTC
MEAN_ELEMENT_THEORY = SGP/SGP4

EPOCH          = 2026-03-22T04:00:01.999584
MEAN_MOTION    = 15.48671935
ECCENTRICITY   = .00010469
INCLINATION    = 42.9999
RA_OF_ASC_NODE = 175.0499
ARG_OF_PERICENTER = 276.9717
MEAN_ANOMALY   = 214.5260

EPHEMERIS_TYPE = 0
CLASSIFICATION_TYPE = U
NORAD_CAT_ID   = 67914
ELEMENT_SET_NO = 999
REV_AT_EPOCH   = 565
BSTAR          = -.39524221E-1
MEAN_MOTION_DOT = -.1941595E-1
MEAN_MOTION_DDOT = 0

